*******************************************************************************
Ephemeris / WWW_USER Mon Jul 15 19:25:14 2024 Pasadena, USA      / Horizons    
*******************************************************************************
Target body name: (2018 RB1)                      {source: JPL#5}
Center body name: Earth (399)                     {source: DE441}
Center-site name: Gemini South Obs., Cerro Pachon
*******************************************************************************
Start time      : A.D. 2018-Oct-13 23:00:00.0000 UT      
Stop  time      : A.D. 2018-Oct-14 09:57:00.0000 UT      
Step-size       : 1 minutes
*******************************************************************************
Target pole/equ : undefined
Target radii    : undefined                                                    
Center geodetic : 289.2634, -30.2406227, 2.71233  {E-lon(deg),Lat(deg),Alt(km)}
Center cylindric: 289.2634,5517.21435,-3194.81213 {E-lon(deg),Dxy(km),Dz(km)}
Center pole/equ : ITRF93                          {East-longitude positive}
Center radii    : 6378.137, 6378.137, 6356.752 km {Equator_a, b, pole_c}       
Target primary  : Sun
Vis. interferer : MOON (R_eq= 1737.400) km        {source: DE441}
Rel. light bend : Sun                             {source: DE441}
Rel. lght bnd GM: 1.3271E+11 km^3/s^2                                          
Small-body perts: Yes                             {source: SB441-N16}
Atmos refraction: NO (AIRLESS)
RA format       : HMS
Time format     : CAL 
Calendar mode   : Mixed Julian/Gregorian
RTS-only print  : NO       
EOP file        : eop.240715.p241008                                           
EOP coverage    : DATA-BASED 1962-JAN-20 TO 2024-JUL-15. PREDICTS-> 2024-OCT-07
Units conversion: 1 au= 149597870.700 km, c= 299792.458 km/s, 1 day= 86400.0 s 
Table cut-offs 1: Elevation (-90.0deg=NO ),Airmass (>38.000=NO), Daylight (YES)
Table cut-offs 2: Solar elongation (  0.0,180.0=NO ),Local Hour Angle( 0.0=NO )
Table cut-offs 3: RA/DEC angular rate (     0.0=NO )                           
*******************************************************************************
Initial IAU76/J2000 heliocentric ecliptic osculating elements (au, days, deg.):
  EPOCH=  2458368.5 ! 2018-Sep-07.00 (TDB)         Residual RMS= .299          
   EC= .2816093255492492   QR= .7991213126369837   TP= 2458438.7854507864      
   OM= 166.9631715555783   W=  267.8210074013559   IN= 5.127543488636634       
  Equivalent ICRF heliocentric cartesian coordinates (au, au/d):
   X= 9.883258176612897E-01  Y=-2.654573099408967E-01  Z=-1.095366816313374E-01
  VX= 1.112505236628486E-04 VY= 1.667631342697191E-02 VZ= 5.559084906068471E-03
Asteroid physical parameters (km, seconds, rotational period in hours):        
   GM= n.a.                RAD= n.a.               ROTPER= n.a.                
   H= 27.9                 G= .150                 B-V= n.a.                   
                           ALBEDO= n.a.            STYP= n.a.                  
*******************************************************************************
 Date__(UT)__HR:MN     R.A._________(ICRF)_________DEC
******************************************************
$$SOE
 2018-Oct-14 05:09     10 58 35.135236 -11 41 14.85010
 2018-Oct-14 05:10     10 58 35.180846 -11 41 14.62332
 2018-Oct-14 05:11     10 58 35.226416 -11 41 14.39667
 2018-Oct-14 05:12     10 58 35.271944 -11 41 14.17015
 2018-Oct-14 05:13     10 58 35.317432 -11 41 13.94377
 2018-Oct-14 05:14     10 58 35.362878 -11 41 13.71752
 2018-Oct-14 05:15     10 58 35.408283 -11 41 13.49141
 2018-Oct-14 05:16     10 58 35.453647 -11 41 13.26543
 2018-Oct-14 05:17     10 58 35.498969 -11 41 13.03958
 2018-Oct-14 05:18     10 58 35.544248 -11 41 12.81386
 2018-Oct-14 05:19     10 58 35.589486 -11 41 12.58827
 2018-Oct-14 05:20     10 58 35.634681 -11 41 12.36282
 2018-Oct-14 05:21     10 58 35.679834 -11 41 12.13749
 2018-Oct-14 05:22     10 58 35.724945 -11 41 11.91229
 2018-Oct-14 05:23     10 58 35.770012 -11 41 11.68722
 2018-Oct-14 05:24     10 58 35.815037 -11 41 11.46228
 2018-Oct-14 05:25     10 58 35.860018 -11 41 11.23746
 2018-Oct-14 05:26     10 58 35.904956 -11 41 11.01278
 2018-Oct-14 05:27     10 58 35.949851 -11 41 10.78822
 2018-Oct-14 05:28     10 58 35.994702 -11 41 10.56378
 2018-Oct-14 05:29     10 58 36.039509 -11 41 10.33947
 2018-Oct-14 05:30     10 58 36.084272 -11 41 10.11528
 2018-Oct-14 05:31     10 58 36.128991 -11 41 09.89122
 2018-Oct-14 05:32     10 58 36.173666 -11 41 09.66728
 2018-Oct-14 05:33     10 58 36.218296 -11 41 09.44346
 2018-Oct-14 05:34     10 58 36.262882 -11 41 09.21977
 2018-Oct-14 05:35     10 58 36.307422 -11 41 08.99619
 2018-Oct-14 05:36     10 58 36.351918 -11 41 08.77274
 2018-Oct-14 05:37     10 58 36.396369 -11 41 08.54941
 2018-Oct-14 05:38     10 58 36.440774 -11 41 08.32619
 2018-Oct-14 05:39     10 58 36.485134 -11 41 08.10310
 2018-Oct-14 05:40     10 58 36.529448 -11 41 07.88012
 2018-Oct-14 05:41     10 58 36.573717 -11 41 07.65726
 2018-Oct-14 05:42     10 58 36.617939 -11 41 07.43452
 2018-Oct-14 05:43     10 58 36.662116 -11 41 07.21189
 2018-Oct-14 05:44     10 58 36.706246 -11 41 06.98938
 2018-Oct-14 05:45     10 58 36.750330 -11 41 06.76699
 2018-Oct-14 05:46     10 58 36.794367 -11 41 06.54471
 2018-Oct-14 05:47     10 58 36.838357 -11 41 06.32254
 2018-Oct-14 05:48     10 58 36.882301 -11 41 06.10049
 2018-Oct-14 05:49     10 58 36.926198 -11 41 05.87855
 2018-Oct-14 05:50     10 58 36.970047 -11 41 05.65672
 2018-Oct-14 05:51     10 58 37.013850 -11 41 05.43500
 2018-Oct-14 05:52     10 58 37.057605 -11 41 05.21339
 2018-Oct-14 05:53     10 58 37.101312 -11 41 04.99189
 2018-Oct-14 05:54     10 58 37.144971 -11 41 04.77051
 2018-Oct-14 05:55     10 58 37.188583 -11 41 04.54923
 2018-Oct-14 05:56     10 58 37.232147 -11 41 04.32805
 2018-Oct-14 05:57     10 58 37.275662 -11 41 04.10699
 2018-Oct-14 05:58     10 58 37.319129 -11 41 03.88603
 2018-Oct-14 05:59     10 58 37.362548 -11 41 03.66518
 2018-Oct-14 06:00     10 58 37.405918 -11 41 03.44443
 2018-Oct-14 06:01     10 58 37.449239 -11 41 03.22379
 2018-Oct-14 06:02     10 58 37.492512 -11 41 03.00325
 2018-Oct-14 06:03     10 58 37.535735 -11 41 02.78282
 2018-Oct-14 06:04     10 58 37.578910 -11 41 02.56249
 2018-Oct-14 06:05     10 58 37.622035 -11 41 02.34226
 2018-Oct-14 06:06     10 58 37.665110 -11 41 02.12213
 2018-Oct-14 06:07     10 58 37.708137 -11 41 01.90210
 2018-Oct-14 06:08     10 58 37.751113 -11 41 01.68217
 2018-Oct-14 06:09     10 58 37.794040 -11 41 01.46234
 2018-Oct-14 06:10     10 58 37.836916 -11 41 01.24261
 2018-Oct-14 06:11     10 58 37.879743 -11 41 01.02298
 2018-Oct-14 06:12     10 58 37.922520 -11 41 00.80344
 2018-Oct-14 06:13     10 58 37.965246 -11 41 00.58401
 2018-Oct-14 06:14     10 58 38.007921 -11 41 00.36466
 2018-Oct-14 06:15     10 58 38.050547 -11 41 00.14542
 2018-Oct-14 06:16     10 58 38.093121 -11 40 59.92626
 2018-Oct-14 06:17     10 58 38.135645 -11 40 59.70720
 2018-Oct-14 06:18     10 58 38.178118 -11 40 59.48824
 2018-Oct-14 06:19     10 58 38.220539 -11 40 59.26936
 2018-Oct-14 06:20     10 58 38.262910 -11 40 59.05058
 2018-Oct-14 06:21     10 58 38.305229 -11 40 58.83189
 2018-Oct-14 06:22     10 58 38.347497 -11 40 58.61329
 2018-Oct-14 06:23     10 58 38.389713 -11 40 58.39478
 2018-Oct-14 06:24     10 58 38.431878 -11 40 58.17636
 2018-Oct-14 06:25     10 58 38.473990 -11 40 57.95802
 2018-Oct-14 06:26     10 58 38.516051 -11 40 57.73978
 2018-Oct-14 06:27     10 58 38.558060 -11 40 57.52162
 2018-Oct-14 06:28     10 58 38.600017 -11 40 57.30354
 2018-Oct-14 06:29     10 58 38.641922 -11 40 57.08555
 2018-Oct-14 06:30     10 58 38.683774 -11 40 56.86765
 2018-Oct-14 06:31     10 58 38.725574 -11 40 56.64983
 2018-Oct-14 06:32     10 58 38.767322 -11 40 56.43209
 2018-Oct-14 06:33     10 58 38.809016 -11 40 56.21444
 2018-Oct-14 06:34     10 58 38.850658 -11 40 55.99687
 2018-Oct-14 06:35     10 58 38.892248 -11 40 55.77938
 2018-Oct-14 06:36     10 58 38.933784 -11 40 55.56197
 2018-Oct-14 06:37     10 58 38.975267 -11 40 55.34463
 2018-Oct-14 06:38     10 58 39.016697 -11 40 55.12738
 2018-Oct-14 06:39     10 58 39.058074 -11 40 54.91021
 2018-Oct-14 06:40     10 58 39.099397 -11 40 54.69311
 2018-Oct-14 06:41     10 58 39.140667 -11 40 54.47609
 2018-Oct-14 06:42     10 58 39.181884 -11 40 54.25915
 2018-Oct-14 06:43     10 58 39.223046 -11 40 54.04228
 2018-Oct-14 06:44     10 58 39.264155 -11 40 53.82549
 2018-Oct-14 06:45     10 58 39.305210 -11 40 53.60877
 2018-Oct-14 06:46     10 58 39.346212 -11 40 53.39212
 2018-Oct-14 06:47     10 58 39.387159 -11 40 53.17555
 2018-Oct-14 06:48     10 58 39.428052 -11 40 52.95904
 2018-Oct-14 06:49     10 58 39.468891 -11 40 52.74261
 2018-Oct-14 06:50     10 58 39.509676 -11 40 52.52625
 2018-Oct-14 06:51     10 58 39.550406 -11 40 52.30996
 2018-Oct-14 06:52     10 58 39.591082 -11 40 52.09373
 2018-Oct-14 06:53     10 58 39.631703 -11 40 51.87758
 2018-Oct-14 06:54     10 58 39.672269 -11 40 51.66149
 2018-Oct-14 06:55     10 58 39.712781 -11 40 51.44547
 2018-Oct-14 06:56     10 58 39.753238 -11 40 51.22951
 2018-Oct-14 06:57     10 58 39.793641 -11 40 51.01362
 2018-Oct-14 06:58     10 58 39.833988 -11 40 50.79779
 2018-Oct-14 06:59     10 58 39.874280 -11 40 50.58203
 2018-Oct-14 07:00     10 58 39.914517 -11 40 50.36633
 2018-Oct-14 07:01     10 58 39.954699 -11 40 50.15069
 2018-Oct-14 07:02     10 58 39.994826 -11 40 49.93511
 2018-Oct-14 07:03     10 58 40.034897 -11 40 49.71960
 2018-Oct-14 07:04     10 58 40.074913 -11 40 49.50414
 2018-Oct-14 07:05     10 58 40.114873 -11 40 49.28874
 2018-Oct-14 07:06     10 58 40.154778 -11 40 49.07340
 2018-Oct-14 07:07     10 58 40.194628 -11 40 48.85812
 2018-Oct-14 07:08     10 58 40.234421 -11 40 48.64289
 2018-Oct-14 07:09     10 58 40.274159 -11 40 48.42772
 2018-Oct-14 07:10     10 58 40.313841 -11 40 48.21261
 2018-Oct-14 07:11     10 58 40.353467 -11 40 47.99755
